{
  "type": "FeatureCollection",
  "name": "Kopargaon_Infrastructure_ Civic_Assets",
  "crs": {
    "type": "name",
    "properties": {
      "name": "urn:ogc:def:crs:OGC:1.3:CRS84"
    }
  },
  "features": [
    {
      "type": "Feature",
      "properties": {
        "id": "h1",
        "name": "Kopargaon Sub-District Civil Hospital",
        "type": "hospital",
        "facilityType": "hospital",
        "subType": "Government Hospital",
        "beds": 150,
        "status": "Operational",
        "ward": "Ward 1",
        "address": "Sangamner Naka Road, Kopargaon"
      },
      "geometry": {
        "type": "Point",
        "coordinates": [74.4795, 19.8925]
      }
    },
    {
      "type": "Feature",
      "properties": {
        "id": "h2",
        "name": "Sanjivani Multispecialty Medical Center",
        "type": "hospital",
        "facilityType": "hospital",
        "subType": "Private Super Speciality",
        "beds": 85,
        "status": "Operational",
        "ward": "Ward 3",
        "address": "Laxmi Nagar, Kopargaon"
      },
      "geometry": {
        "type": "Point",
        "coordinates": [74.4710, 19.8890]
      }
    },
    {
      "type": "Feature",
      "properties": {
        "id": "h3",
        "name": "Sai Baba Urban Care Clinic",
        "type": "hospital",
        "facilityType": "hospital",
        "subType": "Community Clinic",
        "beds": 40,
        "status": "Upgrading",
        "ward": "Ward 2",
        "address": "Godavari Bank, Kopargaon"
      },
      "geometry": {
        "type": "Point",
        "coordinates": [74.4830, 19.8980]
      }
    },
    {
      "type": "Feature",
      "properties": {
        "id": "s1",
        "name": "K.J. Somaiya College of Arts & Commerce",
        "type": "school",
        "facilityType": "school",
        "subType": "Higher Education",
        "students": 3500,
        "ward": "Ward 1",
        "address": "College Road, Kopargaon"
      },
      "geometry": {
        "type": "Point",
        "coordinates": [74.4730, 19.8940]
      }
    },
    {
      "type": "Feature",
      "properties": {
        "id": "s2",
        "name": "Sanjivani College of Engineering",
        "type": "school",
        "facilityType": "school",
        "subType": "Technical Institute",
        "students": 4800,
        "ward": "Ward 5",
        "address": "Sanjivani Factory Road, Kopargaon"
      },
      "geometry": {
        "type": "Point",
        "coordinates": [74.4620, 19.8780]
      }
    },
    {
      "type": "Feature",
      "properties": {
        "id": "s3",
        "name": "Municipal Higher Secondary School No. 4",
        "type": "school",
        "facilityType": "school",
        "subType": "Government School",
        "students": 1200,
        "ward": "Ward 3",
        "address": "Tilak Road, Kopargaon"
      },
      "geometry": {
        "type": "Point",
        "coordinates": [74.4770, 19.8860]
      }
    },
    {
      "type": "Feature",
      "properties": {
        "id": "gl1",
        "name": "Kopargaon Municipal Council HQ Plot",
        "type": "governmentLand",
        "designation": "Civic Administrative",
        "areaAcres": 6.5,
        "status": "Utilized",
        "ward": "Ward 1"
      },
      "geometry": {
        "type": "Point",
        "coordinates": [74.4778, 19.8912]
      }
    },
    {
      "type": "Feature",
      "properties": {
        "id": "gl2",
        "name": "Old Grain Storage Land (Godavari Bank)",
        "type": "governmentLand",
        "designation": "Proposed Eco Park",
        "areaAcres": 14.2,
        "status": "Vacant",
        "ward": "Ward 2"
      },
      "geometry": {
        "type": "Point",
        "coordinates": [74.4850, 19.8995]
      }
    },
    {
      "type": "Feature",
      "properties": {
        "id": "gl3",
        "name": "Yesgaon Bypass Transport Hub Reserve",
        "type": "governmentLand",
        "designation": "Logistics Park",
        "areaAcres": 22.0,
        "status": "Planning",
        "ward": "Ward 4"
      },
      "geometry": {
        "type": "Point",
        "coordinates": [74.4880, 19.8830]
      }
    }
  ]
}
