{
  "type": "FeatureCollection",
  "name": "Kopargaon_Smart_City_Projects",
  "crs": {
    "type": "name",
    "properties": {
      "name": "urn:ogc:def:crs:OGC:1.3:CRS84"
    }
  },
  "features": [
    {
      "type": "Feature",
      "properties": {
        "id": "PRJ-2026-001",
        "name": "Godavari Riverfront Promenade & Eco-Park",
        "category": "Green Zone & Eco-Tourism",
        "description": "Construction of a 1.2 km pedestrian promenade along the Godavari riverbank featuring native tree plantations, smart solar lighting, seating areas, and a community amphitheater.",
        "status": "Ongoing",
        "progress": 45,
        "budget": 35000000,
        "spent": 16000000,
        "startDate": "2026-03-01",
        "expectedCompletion": "2027-06-30",
        "department": "Town Planning & Environment",
        "ward": "Ward 2"
      },
      "geometry": {
        "type": "LineString",
        "coordinates": [
          [74.4750, 19.8980],
          [74.4820, 19.9000],
          [74.4880, 19.9020]
        ]
      }
    },
    {
      "type": "Feature",
      "properties": {
        "id": "PRJ-2026-002",
        "name": "Tilak Road Integrated Utility Corridor & Smart Junction",
        "category": "Road Damage",
        "description": "Redesigning the major commercial Tilak Road junction with smart traffic signals, pedestrian refuge islands, and an underground ducting corridor for power & telecom utilities.",
        "status": "Ongoing",
        "progress": 72,
        "budget": 45000000,
        "spent": 32000000,
        "startDate": "2025-06-15",
        "expectedCompletion": "2026-11-30",
        "department": "Public Works & Electrical",
        "ward": "Ward 3"
      },
      "geometry": {
        "type": "Point",
        "coordinates": [74.4741, 19.8882]
      }
    },
    {
      "type": "Feature",
      "properties": {
        "id": "PRJ-2026-003",
        "name": "City-Wide SCADA-Enabled Water Distribution Grid",
        "category": "Water Leakage",
        "description": "Installation of ultrasonic bulk water flow meters and pressure sensors connected to a central SCADA server to monitor leakages and automate valve controls across major wards.",
        "status": "Ongoing",
        "progress": 55,
        "budget": 68000000,
        "spent": 37000000,
        "startDate": "2025-09-01",
        "expectedCompletion": "2027-02-28",
        "department": "Water Supply & SCADA Cell",
        "ward": "Ward 1"
      },
      "geometry": {
        "type": "LineString",
        "coordinates": [
          [74.4650, 19.8950],
          [74.4750, 19.8980],
          [74.4780, 19.8900]
        ]
      }
    },
    {
      "type": "Feature",
      "properties": {
        "id": "PRJ-2026-004",
        "name": "Takli Road Solar Power Substation (5MW)",
        "category": "Energy",
        "description": "Grid-connected 5 MegaWatt solar photovoltaic station powering public streetlights and municipal pump stations.",
        "status": "Completed",
        "progress": 100,
        "budget": 85000000,
        "spent": 85000000,
        "startDate": "2024-08-01",
        "expectedCompletion": "2026-02-28",
        "department": "Electrical & Renewable",
        "ward": "Ward 5"
      },
      "geometry": {
        "type": "Polygon",
        "coordinates": [
          [
            [74.4580, 19.8820],
            [74.4620, 19.8820],
            [74.4620, 19.8780],
            [74.4580, 19.8780],
            [74.4580, 19.8820]
          ]
        ]
      }
    },
    {
      "type": "Feature",
      "properties": {
        "id": "PRJ-2026-005",
        "name": "Yesgaon Multi-Modal Logistics & Cold Chain Yard",
        "category": "Logistics",
        "description": "22-acre modern logistic hub featuring 10,000 MT temperature-controlled cold storage for agricultural produce.",
        "status": "Planning",
        "progress": 20,
        "budget": 95000000,
        "spent": 19000000,
        "startDate": "2026-01-15",
        "expectedCompletion": "2027-12-20",
        "department": "Town Planning & Industry",
        "ward": "Ward 4"
      },
      "geometry": {
        "type": "Polygon",
        "coordinates": [
          [
            [74.4820, 19.8880],
            [74.4920, 19.8900],
            [74.4940, 19.8820],
            [74.4840, 19.8810],
            [74.4820, 19.8880]
          ]
        ]
      }
    },
    {
      "type": "Feature",
      "properties": {
        "id": "PRJ-2026-006",
        "name": "Subhash Road Heritage Market Beautification",
        "category": "Heritage",
        "description": "Pedestrianization of central market street, underground utility cabling, unified shop facade signages, and cobblestone pathways.",
        "status": "Ongoing",
        "progress": 88,
        "budget": 28000000,
        "spent": 24000000,
        "startDate": "2025-03-01",
        "expectedCompletion": "2026-09-30",
        "department": "Town Planning & Heritage",
        "ward": "Ward 7"
      },
      "geometry": {
        "type": "Point",
        "coordinates": [74.4760, 19.8900]
      }
    }
  ]
}
